{
  "norad_id": 64774,
  "name": "STARLINK-34621",
  "history": [
    {
      "epoch": "2026-03-28T14:29:07.534752Z",
      "apogee_km": 476.16393623363183,
      "perigee_km": 474.2820035858949,
      "latitude_deg": -2.0864069838068214e-06,
      "longitude_deg": 111.87027251448664,
      "height_km": 475.9391487132634,
      "semi_major_axis_km": 6853.359969909763,
      "eccentricity": 0.0001373,
      "inclination_deg": 53.1584,
      "raan_deg": 155.1733,
      "arg_perigee_deg": 78.8712,
      "mean_anomaly_deg": 281.2443,
      "mean_motion_rev_day": 15.30197354
    }
  ]
}